[Satellite]
VERSION=1.1
NAME=ASTEX 1
NICKNAME=ASTEX 1
TLE1=1 05560U 71089A   22342.37034426  .00000519  00000+0  13860-3 0  9998
TLE2=2 05560  92.7136 128.3021 0018025 123.8990 236.3932 14.48417286690302
STATUS=0
